{"type": "FeatureCollection", "features": [{"type": "Feature", "id": 1, "geometry": {"type": "LineString", "coordinates": [[-99.12225900033636, 19.49544399967421, 0, null], [-99.13380471334179, 19.511671355654705, 0, null], [-99.14079744101461, 19.52735444549787, 0, null], [-99.1419590003792, 19.54026599925981, 0, null], [-99.13415747649688, 19.557946283065984, 0, null]]}, "properties": {"id": 1, "sistema": "STE Cablebús", "linea": "1", "ruta": "Indios Verdes - Cuautepec", "objectid": 1}}, {"type": "Feature", "id": 2, "geometry": {"type": "LineString", "coordinates": [[-99.12642699984022, 19.544770999268824, 0, null], [-99.1419590003792, 19.54026599925981, 0, null]]}, "properties": {"id": 2, "sistema": "STE Cablebús", "linea": "1", "ruta": "Antena Tlalpexco", "objectid": 2}}, {"type": "Feature", "id": 3, "geometry": {"type": "LineString", "coordinates": [[-99.06250524253873, 19.34485683465381, 0, null], [-99.04344925743743, 19.327826964066343, 0, null], [-99.03082648821554, 19.331787898695463, 0, null], [-99.01900287653095, 19.33617263258885, 0, null], [-99.00811167830155, 19.340827679368598, 0, null], [-98.98954879528327, 19.34352581268723, 0, null], [-98.99398220131725, 19.35951698265942, 0, null]]}, "properties": {"id": 3, "sistema": "STE Cablebús", "linea": "2", "ruta": "Constitución de 1917 - Santa Marta", "objectid": 3}}, {"type": "Feature", "id": 4, "geometry": {"type": "LineString", "coordinates": [[-99.23179903109275, 19.384222350735378, 0, null], [-99.2290507278178, 19.391218351685897, 0, null], [-99.22216139429362, 19.396781372494388, 0, null], [-99.21300721501342, 19.399696831420048, 0, null], [-99.20096296234121, 19.407310939435227, 0, null], [-99.1914555050665, 19.41304389629898, 0, null]]}, "properties": {"id": 4, "sistema": "STE Cablebús", "linea": "3", "ruta": "Los Pinos/Constituyentes - Vasco de Quiroga", "objectid": 4}}]}