{"type": "FeatureCollection", "features": [{"type": "Feature", "id": 1, "geometry": {"type": "Point", "coordinates": [-99.12225900033567, 19.495443998770497, 0, null]}, "properties": {"id": 1, "sistema": "STE Cablebús", "nombre": "Indios Verdes", "linea": "01", "est": "01", "cve_est": "CB0101", "tipo": "Terminal", "año": 2021, "guia_tact": "Sí", "p_braile": "No", "elevadores": "Sí", "alcaldias": "Gustavo A. Madero", "objectid": 1}}, {"type": "Feature", "id": 2, "geometry": {"type": "Point", "coordinates": [-99.13380471334179, 19.511671355654705, 0, null]}, "properties": {"id": 2, "sistema": "STE Cablebús", "nombre": "Ticomán", "linea": "01", "est": "02", "cve_est": "CB0102", "tipo": "Intermedia", "año": 2021, "guia_tact": "Sí", "p_braile": "No", "elevadores": "Sí", "alcaldias": "Gustavo A. Madero", "objectid": 2}}, {"type": "Feature", "id": 3, "geometry": {"type": "Point", "coordinates": [-99.14079744101461, 19.52735444549787, 0, null]}, "properties": {"id": 3, "sistema": "STE Cablebús", "nombre": "La Pastora", "linea": "01", "est": "03", "cve_est": "CB0103", "tipo": "Intermedia", "año": 2021, "guia_tact": "Sí", "p_braile": "No", "elevadores": "Sí", "alcaldias": "Gustavo A. Madero", "objectid": 3}}, {"type": "Feature", "id": 4, "geometry": {"type": "Point", "coordinates": [-99.1419590003792, 19.54026599925981, 0, null]}, "properties": {"id": 4, "sistema": "STE Cablebús", "nombre": "Campos Revolución", "linea": "01", "est": "04", "cve_est": "CB0104", "tipo": "Intermedia", "año": 2021, "guia_tact": "Sí", "p_braile": "No", "elevadores": "Sí", "alcaldias": "Gustavo A. Madero", "objectid": 4}}, {"type": "Feature", "id": 5, "geometry": {"type": "Point", "coordinates": [-99.13415747649688, 19.557946283065984, 0, null]}, "properties": {"id": 5, "sistema": "STE Cablebús", "nombre": "Cuautepec", "linea": "01", "est": "05", "cve_est": "CB0105", "tipo": "Terminal", "año": 2021, "guia_tact": "Sí", "p_braile": "No", "elevadores": "Sí", "alcaldias": "Gustavo A. Madero", "objectid": 5}}, {"type": "Feature", "id": 6, "geometry": {"type": "Point", "coordinates": [-99.12642699984022, 19.544770999268824, 0, null]}, "properties": {"id": 6, "sistema": "STE Cablebús", "nombre": "Tlalpexco", "linea": "01", "est": "06", "cve_est": "CB0106", "tipo": "Antena", "año": 2021, "guia_tact": "Sí", "p_braile": "No", "elevadores": "Sí", "alcaldias": "Gustavo A. Madero", "objectid": 6}}, {"type": "Feature", "id": 7, "geometry": {"type": "Point", "coordinates": [-99.06250524253839, 19.34485683375007, 0, null]}, "properties": {"id": 7, "sistema": "STE Cablebús", "nombre": "Constitución de 1917", "linea": "02", "est": "01", "cve_est": "CB0201", "tipo": "Terminal", "año": 2021, "guia_tact": "Sí", "p_braile": "Sí", "elevadores": "Sí", "alcaldias": "Iztapalapa", "objectid": 7}}, {"type": "Feature", "id": 8, "geometry": {"type": "Point", "coordinates": [-99.04344925743719, 19.327826963162615, 0, null]}, "properties": {"id": 8, "sistema": "STE Cablebús", "nombre": "Quetzacóatl", "linea": "02", "est": "02", "cve_est": "CB0202", "tipo": "Intermedia", "año": 2021, "guia_tact": "Sí", "p_braile": "Sí", "elevadores": "Sí", "alcaldias": "Iztapalapa", "objectid": 8}}, {"type": "Feature", "id": 9, "geometry": {"type": "Point", "coordinates": [-99.03082648821538, 19.331787897791735, 0, null]}, "properties": {"id": 9, "sistema": "STE Cablebús", "nombre": "Las Torres Buenavista", "linea": "02", "est": "03", "cve_est": "CB0203", "tipo": "Intermedia", "año": 2021, "guia_tact": "Sí", "p_braile": "Sí", "elevadores": "Sí", "alcaldias": "Iztapalapa", "objectid": 9}}, {"type": "Feature", "id": 10, "geometry": {"type": "Point", "coordinates": [-99.01900287653085, 19.336172631685116, 0, null]}, "properties": {"id": 10, "sistema": "STE Cablebús", "nombre": "Xalpa", "linea": "02", "est": "04", "cve_est": "CB0204", "tipo": "Intermedia", "año": 2021, "guia_tact": "Sí", "p_braile": "Sí", "elevadores": "Sí", "alcaldias": "Iztapalapa", "objectid": 10}}, {"type": "Feature", "id": 11, "geometry": {"type": "Point", "coordinates": [-99.0081116783015, 19.340827678464876, 0, null]}, "properties": {"id": 11, "sistema": "STE Cablebús", "nombre": "Lomas de la Estancia", "linea": "02", "est": "05", "cve_est": "CB0205", "tipo": "Intermedia", "año": 2021, "guia_tact": "Sí", "p_braile": "Sí", "elevadores": "Sí", "alcaldias": "Iztapalapa", "objectid": 11}}, {"type": "Feature", "id": 12, "geometry": {"type": "Point", "coordinates": [-98.98954879528327, 19.34352581268723, 0, null]}, "properties": {"id": 12, "sistema": "STE Cablebús", "nombre": "San Miguel Teotongo", "linea": "02", "est": "06", "cve_est": "CB0206", "tipo": "Intermedia", "año": 2021, "guia_tact": "Sí", "p_braile": "Sí", "elevadores": "Sí", "alcaldias": "Iztapalapa", "objectid": 12}}, {"type": "Feature", "id": 13, "geometry": {"type": "Point", "coordinates": [-98.99398220131728, 19.359516981755682, 0, null]}, "properties": {"id": 13, "sistema": "STE Cablebús", "nombre": "Santa Marta", "linea": "02", "est": "07", "cve_est": "CB0207", "tipo": "Terminal", "año": 2021, "guia_tact": "Sí", "p_braile": "Sí", "elevadores": "Sí", "alcaldias": "Iztapalapa", "objectid": 13}}, {"type": "Feature", "id": 14, "geometry": {"type": "Point", "coordinates": [-99.19146064813472, 19.413043571864677, 0, null]}, "properties": {"id": 14, "sistema": "STE Cablebús", "nombre": "Los Pinos/Constituyentes", "linea": "03", "est": "06", "cve_est": "CB0306", "tipo": "Terminal", "año": 2024, "guia_tact": "Sí", "p_braile": "Sí", "elevadores": "Sí", "alcaldias": "Miguel Hidalgo", "objectid": 14}}, {"type": "Feature", "id": 15, "geometry": {"type": "Point", "coordinates": [-99.23179585750802, 19.384222031245738, 0, null]}, "properties": {"id": 15, "sistema": "STE Cablebús", "nombre": "Vasco de Quiroga", "linea": "03", "est": "01", "cve_est": "CB0301", "tipo": "Terminal", "año": 2024, "guia_tact": "Sí", "p_braile": "Sí", "elevadores": "Sí", "alcaldias": "Álvaro Obregón", "objectid": 15}}, {"type": "Feature", "id": 16, "geometry": {"type": "Point", "coordinates": [-99.22905342456215, 19.391211297431443, 0, null]}, "properties": {"id": 16, "sistema": "STE Cablebús", "nombre": "Cineteca Nacional/Bodega de Arte", "linea": "03", "est": "02", "cve_est": "CB0302", "tipo": "Intermedia", "año": 2024, "guia_tact": "Sí", "p_braile": "Sí", "elevadores": "Sí", "alcaldias": "Álvaro Obregón", "objectid": 16}}, {"type": "Feature", "id": 17, "geometry": {"type": "Point", "coordinates": [-99.22216587896077, 19.396777747598986, 0, null]}, "properties": {"id": 17, "sistema": "STE Cablebús", "nombre": "PARCUR/Colegio de Arquitectos", "linea": "03", "est": "03", "cve_est": "CB0303", "tipo": "Intermedia", "año": 2024, "guia_tact": "Sí", "p_braile": "Sí", "elevadores": "Sí", "alcaldias": "Miguel Hidalgo", "objectid": 17}}, {"type": "Feature", "id": 18, "geometry": {"type": "Point", "coordinates": [-99.20096897296669, 19.407303693958156, 0, null]}, "properties": {"id": 18, "sistema": "STE Cablebús", "nombre": "Panteón Dolores", "linea": "03", "est": "05", "cve_est": "CB0305", "tipo": "Intermedia", "año": 2024, "guia_tact": "Sí", "p_braile": "Sí", "elevadores": "Sí", "alcaldias": "Miguel Hidalgo", "objectid": 18}}, {"type": "Feature", "id": 19, "geometry": {"type": "Point", "coordinates": [-99.21300763331803, 19.39968966349221, 0, null]}, "properties": {"id": 19, "sistema": "STE Cablebús", "nombre": "Charrería", "linea": "03", "est": "04", "cve_est": "CB0304", "tipo": "Intermedia", "año": 2024, "guia_tact": "Sí", "p_braile": "Sí", "elevadores": "Sí", "alcaldias": "Miguel Hidalgo", "objectid": 19}}]}