{"type":"FeatureCollection","features":[{"type":"Feature","id":1,"geometry":{"type":"Point","coordinates":[-99.074735727011316,19.416334084704765,0,null]},"properties":{"id":1,"sistema":"STC Metro","nombre":"Pantitlán","linea":"01","est":"01","cve_est":"STC0101","cve_eod17":"05014","tipo":"Terminal / Transbordo","año":1984,"alcaldias":"Venustiano Carranza","objectid":1}},{"type":"Feature","id":2,"geometry":{"type":"Point","coordinates":[-99.082288811776522,19.411920455045671,0,null]},"properties":{"id":2,"sistema":"STC Metro","nombre":"Zaragoza","linea":"01","est":"02","cve_est":"STC0102","cve_eod17":"05020","tipo":"Intermedia","año":1969,"alcaldias":"Venustiano Carranza","objectid":2}},{"type":"Feature","id":3,"geometry":{"type":"Point","coordinates":[-99.090210391710883,19.416478456015604,0,null]},"properties":{"id":3,"sistema":"STC Metro","nombre":"Gomez Farías","linea":"01","est":"03","cve_est":"STC0103","cve_eod17":"05007","tipo":"Intermedia","año":1969,"alcaldias":"Venustiano Carranza","objectid":3}},{"type":"Feature","id":4,"geometry":{"type":"Point","coordinates":[-99.096258732409822,19.419941963958458,0,null]},"properties":{"id":4,"sistema":"STC Metro","nombre":"Boulevard Puerto Aéreo","linea":"01","est":"04","cve_est":"STC0104","cve_eod17":"05003","tipo":"Intermedia","año":1969,"alcaldias":"Venustiano Carranza","objectid":4}},{"type":"Feature","id":5,"geometry":{"type":"Point","coordinates":[-99.102774363973865,19.423355334683507,0,null]},"properties":{"id":5,"sistema":"STC Metro","nombre":"Balbuena","linea":"01","est":"05","cve_est":"STC0105","cve_eod17":"05001","tipo":"Intermedia","año":1969,"alcaldias":"Venustiano Carranza","objectid":5}},{"type":"Feature","id":6,"geometry":{"type":"Point","coordinates":[-99.109799269104357,19.426854345777919,0,null]},"properties":{"id":6,"sistema":"STC Metro","nombre":"Moctezuma","linea":"01","est":"06","cve_est":"STC0106","cve_eod17":"05012","tipo":"Intermedia","año":1969,"alcaldias":"Venustiano Carranza","objectid":6}},{"type":"Feature","id":7,"geometry":{"type":"Point","coordinates":[-99.114260952393522,19.430058848722176,0,null]},"properties":{"id":7,"sistema":"STC Metro","nombre":"San Lázaro","linea":"01","est":"07","cve_est":"STC0107","cve_eod17":"05017","tipo":"Transbordo","año":1969,"alcaldias":"Venustiano Carranza","objectid":7}},{"type":"Feature","id":8,"geometry":{"type":"Point","coordinates":[-99.120909550055444,19.429540139818833,0,null]},"properties":{"id":8,"sistema":"STC Metro","nombre":"Candelaria","linea":"01","est":"08","cve_est":"STC0108","cve_eod17":"05004","tipo":"Transbordo","año":1969,"alcaldias":"Venustiano Carranza","objectid":8}},{"type":"Feature","id":9,"geometry":{"type":"Point","coordinates":[-99.125025418517154,19.425487570682321,0,null]},"properties":{"id":9,"sistema":"STC Metro","nombre":"Merced","linea":"01","est":"09","cve_est":"STC0109","cve_eod17":"05011","tipo":"Intermedia","año":1969,"alcaldias":"Venustiano Carranza","objectid":9}},{"type":"Feature","id":10,"geometry":{"type":"Point","coordinates":[-99.132638611993286,19.425923494216185,0,null]},"properties":{"id":10,"sistema":"STC Metro","nombre":"Pino Suárez","linea":"01","est":"10","cve_est":"STC0110","cve_eod17":"05015","tipo":"Transbordo","año":1969,"alcaldias":"Cuauhtémoc","objectid":10}},{"type":"Feature","id":11,"geometry":{"type":"Point","coordinates":[-99.137830456462055,19.426393510906479,0,null]},"properties":{"id":11,"sistema":"STC Metro","nombre":"Isabel La Católica","linea":"01","est":"11","cve_est":"STC0111","cve_eod17":"05009","tipo":"Intermedia","año":1969,"alcaldias":"Cuauhtémoc","objectid":11}},{"type":"Feature","id":12,"geometry":{"type":"Point","coordinates":[-99.143406293869106,19.42694818885014,0,null]},"properties":{"id":12,"sistema":"STC Metro","nombre":"Salto del Agua","linea":"01","est":"12","cve_est":"STC0112","cve_eod17":"05016","tipo":"Transbordo","año":1969,"alcaldias":"Cuauhtémoc","objectid":12}},{"type":"Feature","id":13,"geometry":{"type":"Point","coordinates":[-99.149481151427935,19.426997875197166,0,null]},"properties":{"id":13,"sistema":"STC Metro","nombre":"Balderas","linea":"01","est":"13","cve_est":"STC0113","cve_eod17":"05002","tipo":"Transbordo","año":1969,"alcaldias":"Cuauhtémoc","objectid":13}},{"type":"Feature","id":14,"geometry":{"type":"Point","coordinates":[-99.154597951349245,19.425661110192063,0,null]},"properties":{"id":14,"sistema":"STC Metro","nombre":"Cuauhtémoc","linea":"01","est":"14","cve_est":"STC0114","cve_eod17":"05006","tipo":"Intermedia","año":1969,"alcaldias":"Cuauhtémoc","objectid":14}},{"type":"Feature","id":15,"geometry":{"type":"Point","coordinates":[-99.163288879476539,19.423651799715557,0,null]},"properties":{"id":15,"sistema":"STC Metro","nombre":"Insurgentes","linea":"01","est":"15","cve_est":"STC0115","cve_eod17":"05008","tipo":"Intermedia","año":1969,"alcaldias":"Cuauhtémoc","objectid":15}},{"type":"Feature","id":16,"geometry":{"type":"Point","coordinates":[-99.171119073914227,19.421849915029824,0,null]},"properties":{"id":16,"sistema":"STC Metro","nombre":"Sevilla","linea":"01","est":"16","cve_est":"STC0116","cve_eod17":"05018","tipo":"Intermedia","año":1969,"alcaldias":"Cuauhtémoc","objectid":16}},{"type":"Feature","id":17,"geometry":{"type":"Point","coordinates":[-99.176416731569802,19.420746294155617,0,null]},"properties":{"id":17,"sistema":"STC Metro","nombre":"Chapultepec","linea":"01","est":"17","cve_est":"STC0117","cve_eod17":"05005","tipo":"Intermedia","año":1969,"alcaldias":"Cuauhtémoc / Miguel Hidalgo","objectid":17}},{"type":"Feature","id":18,"geometry":{"type":"Point","coordinates":[-99.181983829478156,19.412951641599339,0,null]},"properties":{"id":18,"sistema":"STC Metro","nombre":"Juanacatlán","linea":"01","est":"18","cve_est":"STC0118","cve_eod17":"05010","tipo":"Intermedia","año":1970,"alcaldias":"Miguel Hidalgo","objectid":18}},{"type":"Feature","id":19,"geometry":{"type":"Point","coordinates":[-99.187636526316254,19.402513801448158,0,null]},"properties":{"id":19,"sistema":"STC Metro","nombre":"Tacubaya","linea":"01","est":"19","cve_est":"STC0119","cve_eod17":"05019","tipo":"Transbordo","año":1970,"alcaldias":"Miguel Hidalgo","objectid":19}},{"type":"Feature","id":20,"geometry":{"type":"Point","coordinates":[-99.200404746045351,19.398282374807543,0,null]},"properties":{"id":20,"sistema":"STC Metro","nombre":"Observatorio","linea":"01","est":"20","cve_est":"STC0120","cve_eod17":"05013","tipo":"Terminal","año":1972,"alcaldias":"Álvaro Obregón","objectid":20}},{"type":"Feature","id":21,"geometry":{"type":"Point","coordinates":[-99.215842489696044,19.459593207600403,0,null]},"properties":{"id":21,"sistema":"STC Metro","nombre":"Cuatro Caminos","linea":"02","est":"01","cve_est":"STC0201","cve_eod17":"05045","tipo":"Terminal","año":1984,"alcaldias":"Estado de México - Naucalpan de Juárez","objectid":21}},{"type":"Feature","id":22,"geometry":{"type":"Point","coordinates":[-99.202949129526473,19.458638559878469,0,null]},"properties":{"id":22,"sistema":"STC Metro","nombre":"Panteones","linea":"02","est":"02","cve_est":"STC0202","cve_eod17":"05052","tipo":"Intermedia","año":1984,"alcaldias":"Miguel Hidalgo","objectid":22}},{"type":"Feature","id":23,"geometry":{"type":"Point","coordinates":[-99.18823093441344,19.459376009827043,0,null]},"properties":{"id":23,"sistema":"STC Metro","nombre":"Tacuba","linea":"02","est":"03","cve_est":"STC0203","cve_eod17":"05059","tipo":"Transbordo","año":1970,"alcaldias":"Miguel Hidalgo","objectid":23}},{"type":"Feature","id":24,"geometry":{"type":"Point","coordinates":[-99.181495767911571,19.457253888847553,0,null]},"properties":{"id":24,"sistema":"STC Metro","nombre":"Cuitláhuac","linea":"02","est":"04","cve_est":"STC0204","cve_eod17":"05046","tipo":"Intermedia","año":1970,"alcaldias":"Miguel Hidalgo","objectid":24}},{"type":"Feature","id":25,"geometry":{"type":"Point","coordinates":[-99.175493814340527,19.452909218909866,0,null]},"properties":{"id":25,"sistema":"STC Metro","nombre":"Popotla","linea":"02","est":"05","cve_est":"STC0205","cve_eod17":"05054","tipo":"Intermedia","año":1970,"alcaldias":"Miguel Hidalgo","objectid":25}},{"type":"Feature","id":26,"geometry":{"type":"Point","coordinates":[-99.171779233316201,19.449273554105488,0,null]},"properties":{"id":26,"sistema":"STC Metro","nombre":"Colegio Militar","linea":"02","est":"06","cve_est":"STC0206","cve_eod17":"05044","tipo":"Intermedia","año":1970,"alcaldias":"Miguel Hidalgo","objectid":26}},{"type":"Feature","id":27,"geometry":{"type":"Point","coordinates":[-99.16727403740984,19.444557704632842,0,null]},"properties":{"id":27,"sistema":"STC Metro","nombre":"Normal","linea":"02","est":"07","cve_est":"STC0207","cve_eod17":"05051","tipo":"Intermedia","año":1970,"alcaldias":"Miguel Hidalgo","objectid":27}},{"type":"Feature","id":28,"geometry":{"type":"Point","coordinates":[-99.16066207280619,19.441904253534783,0,null]},"properties":{"id":28,"sistema":"STC Metro","nombre":"San Cosme","linea":"02","est":"08","cve_est":"STC0208","cve_eod17":"05058","tipo":"Intermedia","año":1970,"alcaldias":"Cuauhtémoc","objectid":28}},{"type":"Feature","id":29,"geometry":{"type":"Point","coordinates":[-99.154227825712809,19.439227178247997,0,null]},"properties":{"id":29,"sistema":"STC Metro","nombre":"Revolución","linea":"02","est":"09","cve_est":"STC0209","cve_eod17":"05056","tipo":"Intermedia","año":1970,"alcaldias":"Cuauhtémoc","objectid":29}},{"type":"Feature","id":30,"geometry":{"type":"Point","coordinates":[-99.147223405515319,19.437546747011851,0,null]},"properties":{"id":30,"sistema":"STC Metro","nombre":"Hidalgo","linea":"02","est":"10","cve_est":"STC0210","cve_eod17":"05049","tipo":"Transbordo","año":1970,"alcaldias":"Cuauhtémoc","objectid":30}},{"type":"Feature","id":31,"geometry":{"type":"Point","coordinates":[-99.141613637370725,19.436377755004326,0,null]},"properties":{"id":31,"sistema":"STC Metro","nombre":"Bellas Artes","linea":"02","est":"11","cve_est":"STC0211","cve_eod17":"05042","tipo":"Transbordo","año":1970,"alcaldias":"Cuauhtémoc","objectid":31}},{"type":"Feature","id":32,"geometry":{"type":"Point","coordinates":[-99.136867840236491,19.435558002379498,0,null]},"properties":{"id":32,"sistema":"STC Metro","nombre":"Allende","linea":"02","est":"12","cve_est":"STC0212","cve_eod17":"05041","tipo":"Intermedia","año":1970,"alcaldias":"Cuauhtémoc","objectid":32}},{"type":"Feature","id":33,"geometry":{"type":"Point","coordinates":[-99.132251073277189,19.432501910084223,0,null]},"properties":{"id":33,"sistema":"STC Metro","nombre":"Zócalo/Tenochtitlan","linea":"02","est":"13","cve_est":"STC0213","cve_eod17":"05064","tipo":"Intermedia","año":1970,"alcaldias":"Cuauhtémoc","objectid":33}},{"type":"Feature","id":34,"geometry":{"type":"Point","coordinates":[-99.132941826705405,19.424384710830676,0,null]},"properties":{"id":34,"sistema":"STC Metro","nombre":"Pino Suárez","linea":"02","est":"14","cve_est":"STC0214","cve_eod17":"05053","tipo":"Transbordo","año":1970,"alcaldias":"Cuauhtémoc","objectid":34}},{"type":"Feature","id":35,"geometry":{"type":"Point","coordinates":[-99.134539874156204,19.416021646177366,0,null]},"properties":{"id":35,"sistema":"STC Metro","nombre":"San Antonio Abad","linea":"02","est":"15","cve_est":"STC0215","cve_eod17":"05057","tipo":"Intermedia","año":1970,"alcaldias":"Cuauhtémoc","objectid":35}},{"type":"Feature","id":36,"geometry":{"type":"Point","coordinates":[-99.135618117252207,19.40917986838582,0,null]},"properties":{"id":36,"sistema":"STC Metro","nombre":"Chabacano","linea":"02","est":"16","cve_est":"STC0216","cve_eod17":"05043","tipo":"Transbordo","año":1970,"alcaldias":"Cuauhtémoc","objectid":36}},{"type":"Feature","id":37,"geometry":{"type":"Point","coordinates":[-99.136899592487893,19.400868657127212,0,null]},"properties":{"id":37,"sistema":"STC Metro","nombre":"Viaducto","linea":"02","est":"17","cve_est":"STC0217","cve_eod17":"05061","tipo":"Intermedia","año":1970,"alcaldias":"Benito Juárez / Iztacalco","objectid":37}},{"type":"Feature","id":38,"geometry":{"type":"Point","coordinates":[-99.137808179320572,19.395210509058568,0,null]},"properties":{"id":38,"sistema":"STC Metro","nombre":"Xola","linea":"02","est":"18","cve_est":"STC0218","cve_eod17":"05063","tipo":"Intermedia","año":1970,"alcaldias":"Benito Juárez","objectid":38}},{"type":"Feature","id":39,"geometry":{"type":"Point","coordinates":[-99.138959166220658,19.387581774934194,0,null]},"properties":{"id":39,"sistema":"STC Metro","nombre":"Villa de Cortés","linea":"02","est":"19","cve_est":"STC0219","cve_eod17":"05062","tipo":"Intermedia","año":1970,"alcaldias":"Benito Juárez","objectid":39}},{"type":"Feature","id":40,"geometry":{"type":"Point","coordinates":[-99.140187889707136,19.379532760021796,0,null]},"properties":{"id":40,"sistema":"STC Metro","nombre":"Nativitas","linea":"02","est":"20","cve_est":"STC0220","cve_eod17":"05050","tipo":"Intermedia","año":1970,"alcaldias":"Benito Juárez","objectid":40}},{"type":"Feature","id":41,"geometry":{"type":"Point","coordinates":[-99.141573554913876,19.369924837776139,0,null]},"properties":{"id":41,"sistema":"STC Metro","nombre":"Portales","linea":"02","est":"21","cve_est":"STC0221","cve_eod17":"05055","tipo":"Intermedia","año":1970,"alcaldias":"Benito Juárez","objectid":41}},{"type":"Feature","id":42,"geometry":{"type":"Point","coordinates":[-99.142903761524238,19.361979298872459,0,null]},"properties":{"id":42,"sistema":"STC Metro","nombre":"Ermita","linea":"02","est":"22","cve_est":"STC0222","cve_eod17":"05047","tipo":"Transbordo","año":1970,"alcaldias":"Benito Juárez","objectid":42}},{"type":"Feature","id":43,"geometry":{"type":"Point","coordinates":[-99.145006362954007,19.353235913969311,0,null]},"properties":{"id":43,"sistema":"STC Metro","nombre":"General Anaya","linea":"02","est":"23","cve_est":"STC0223","cve_eod17":"05048","tipo":"Intermedia","año":1970,"alcaldias":"Coyoacán","objectid":43}},{"type":"Feature","id":44,"geometry":{"type":"Point","coordinates":[-99.139532776383746,19.343757097385826,0,null]},"properties":{"id":44,"sistema":"STC Metro","nombre":"Tasqueña","linea":"02","est":"24","cve_est":"STC0224","cve_eod17":"05060","tipo":"Terminal","año":1970,"alcaldias":"Coyoacán","objectid":44}},{"type":"Feature","id":45,"geometry":{"type":"Point","coordinates":[-99.119509938258716,19.49533761775406,0,null]},"properties":{"id":45,"sistema":"STC Metro","nombre":"Indios Verdes","linea":"03","est":"01","cve_est":"STC0301","cve_eod17":"05076","tipo":"Terminal","año":1979,"alcaldias":"Gustavo A. Madero","objectid":45}},{"type":"Feature","id":46,"geometry":{"type":"Point","coordinates":[-99.125497917124179,19.48511415045084,0,null]},"properties":{"id":46,"sistema":"STC Metro","nombre":"Deportivo 18 de Marzo","linea":"03","est":"02","cve_est":"STC0302","cve_eod17":"05069","tipo":"Transbordo","año":1979,"alcaldias":"Gustavo A. Madero","objectid":46}},{"type":"Feature","id":47,"geometry":{"type":"Point","coordinates":[-99.132013682993573,19.477192010589096,0,null]},"properties":{"id":47,"sistema":"STC Metro","nombre":"Potrero","linea":"03","est":"03","cve_est":"STC0303","cve_eod17":"05082","tipo":"Intermedia","año":1979,"alcaldias":"Gustavo A. Madero","objectid":47}},{"type":"Feature","id":48,"geometry":{"type":"Point","coordinates":[-99.139506230224171,19.468880132897347,0,null]},"properties":{"id":48,"sistema":"STC Metro","nombre":"La Raza","linea":"03","est":"04","cve_est":"STC0304","cve_eod17":"05078","tipo":"Transbordo","año":1978,"alcaldias":"Gustavo A. Madero","objectid":48}},{"type":"Feature","id":49,"geometry":{"type":"Point","coordinates":[-99.143133084133581,19.455058141912019,0,null]},"properties":{"id":49,"sistema":"STC Metro","nombre":"Tlatelolco","linea":"03","est":"05","cve_est":"STC0305","cve_eod17":"05083","tipo":"Intermedia","año":1970,"alcaldias":"Cuauhtémoc","objectid":49}},{"type":"Feature","id":50,"geometry":{"type":"Point","coordinates":[-99.145193344069284,19.444726333936739,0,null]},"properties":{"id":50,"sistema":"STC Metro","nombre":"Guerrero","linea":"03","est":"06","cve_est":"STC0306","cve_eod17":"05073","tipo":"Transbordo","año":1970,"alcaldias":"Cuauhtémoc","objectid":50}},{"type":"Feature","id":51,"geometry":{"type":"Point","coordinates":[-99.146782721336422,19.437382391370864,0,null]},"properties":{"id":51,"sistema":"STC Metro","nombre":"Hidalgo","linea":"03","est":"07","cve_est":"STC0307","cve_eod17":"05074","tipo":"Transbordo","año":1970,"alcaldias":"Cuauhtémoc","objectid":51}},{"type":"Feature","id":52,"geometry":{"type":"Point","coordinates":[-99.147683305762627,19.43325034555869,0,null]},"properties":{"id":52,"sistema":"STC Metro","nombre":"Juárez","linea":"03","est":"08","cve_est":"STC0308","cve_eod17":"05077","tipo":"Intermedia","año":1970,"alcaldias":"Cuauhtémoc","objectid":52}},{"type":"Feature","id":53,"geometry":{"type":"Point","coordinates":[-99.149060480038116,19.42648009247522,0,null]},"properties":{"id":53,"sistema":"STC Metro","nombre":"Balderas","linea":"03","est":"09","cve_est":"STC0309","cve_eod17":"05065","tipo":"Transbordo","año":1970,"alcaldias":"Cuauhtémoc","objectid":53}},{"type":"Feature","id":54,"geometry":{"type":"Point","coordinates":[-99.150364265218883,19.419484309300191,0,null]},"properties":{"id":54,"sistema":"STC Metro","nombre":"Niños Héroes/Poder Judicial CDMX","linea":"03","est":"10","cve_est":"STC0310","cve_eod17":"05080","tipo":"Intermedia","año":1970,"alcaldias":"Cuauhtémoc","objectid":54}},{"type":"Feature","id":55,"geometry":{"type":"Point","coordinates":[-99.153245361778474,19.413758752687663,0,null]},"properties":{"id":55,"sistema":"STC Metro","nombre":"Hospital General","linea":"03","est":"11","cve_est":"STC0311","cve_eod17":"05075","tipo":"Intermedia","año":1970,"alcaldias":"Cuauhtémoc","objectid":55}},{"type":"Feature","id":56,"geometry":{"type":"Point","coordinates":[-99.155134689523123,19.407453146552072,0,null]},"properties":{"id":56,"sistema":"STC Metro","nombre":"Centro Médico","linea":"03","est":"12","cve_est":"STC0312","cve_eod17":"05066","tipo":"Transbordo","año":1980,"alcaldias":"Cuauhtémoc","objectid":56}},{"type":"Feature","id":57,"geometry":{"type":"Point","coordinates":[-99.15603141534875,19.395920530725576,0,null]},"properties":{"id":57,"sistema":"STC Metro","nombre":"Etiopía/Plaza de la Transparencia","linea":"03","est":"13","cve_est":"STC0313","cve_eod17":"05081","tipo":"Intermedia","año":1980,"alcaldias":"Benito Juárez","objectid":57}},{"type":"Feature","id":58,"geometry":{"type":"Point","coordinates":[-99.157204597565567,19.386168517223552,0,null]},"properties":{"id":58,"sistema":"STC Metro","nombre":"Eugenia","linea":"03","est":"14","cve_est":"STC0314","cve_eod17":"05072","tipo":"Intermedia","año":1980,"alcaldias":"Benito Juárez","objectid":58}},{"type":"Feature","id":59,"geometry":{"type":"Point","coordinates":[-99.159479165804115,19.379184434510442,0,null]},"properties":{"id":59,"sistema":"STC Metro","nombre":"División del Norte","linea":"03","est":"15","cve_est":"STC0315","cve_eod17":"05071","tipo":"Intermedia","año":1980,"alcaldias":"Benito Juárez","objectid":59}},{"type":"Feature","id":60,"geometry":{"type":"Point","coordinates":[-99.164510297655113,19.371191785662546,0,null]},"properties":{"id":60,"sistema":"STC Metro","nombre":"Zapata","linea":"03","est":"16","cve_est":"STC0316","cve_eod17":"05085","tipo":"Transbordo","año":1980,"alcaldias":"Benito Juárez","objectid":60}},{"type":"Feature","id":61,"geometry":{"type":"Point","coordinates":[-99.17086152734224,19.361359076458214,0,null]},"properties":{"id":61,"sistema":"STC Metro","nombre":"Coyoacán","linea":"03","est":"17","cve_est":"STC0317","cve_eod17":"05068","tipo":"Intermedia","año":1983,"alcaldias":"Benito Juárez","objectid":61}},{"type":"Feature","id":62,"geometry":{"type":"Point","coordinates":[-99.176001086063138,19.353459023632809,0,null]},"properties":{"id":62,"sistema":"STC Metro","nombre":"Viveros/Derechos Humanos","linea":"03","est":"18","cve_est":"STC0318","cve_eod17":"05070","tipo":"Intermedia","año":1983,"alcaldias":"Álvaro Obregón / Coyoacán","objectid":62}},{"type":"Feature","id":63,"geometry":{"type":"Point","coordinates":[-99.180756655643407,19.346251832193989,0,null]},"properties":{"id":63,"sistema":"STC Metro","nombre":"Miguel Ángel de Quevedo","linea":"03","est":"19","cve_est":"STC0319","cve_eod17":"05079","tipo":"Intermedia","año":1983,"alcaldias":"Coyoacán","objectid":63}},{"type":"Feature","id":64,"geometry":{"type":"Point","coordinates":[-99.176973595215387,19.336099273911415,0,null]},"properties":{"id":64,"sistema":"STC Metro","nombre":"Copilco","linea":"03","est":"20","cve_est":"STC0320","cve_eod17":"05067","tipo":"Intermedia","año":1983,"alcaldias":"Coyoacán","objectid":64}},{"type":"Feature","id":65,"geometry":{"type":"Point","coordinates":[-99.173938455588811,19.324353482002387,0,null]},"properties":{"id":65,"sistema":"STC Metro","nombre":"Universidad","linea":"03","est":"21","cve_est":"STC0321","cve_eod17":"05084","tipo":"Terminal","año":1983,"alcaldias":"Coyoacán","objectid":65}},{"type":"Feature","id":66,"geometry":{"type":"Point","coordinates":[-99.121695604258207,19.402891571809199,0,null]},"properties":{"id":66,"sistema":"STC Metro","nombre":"Santa Anita","linea":"04","est":"01","cve_est":"STC0401","cve_eod17":"05094","tipo":"Terminal / Transbordo","año":1982,"alcaldias":"Iztacalco","objectid":66}},{"type":"Feature","id":67,"geometry":{"type":"Point","coordinates":[-99.121743588124716,19.410915059526623,0,null]},"properties":{"id":67,"sistema":"STC Metro","nombre":"Jamaica","linea":"04","est":"02","cve_est":"STC0402","cve_eod17":"05091","tipo":"Transbordo","año":1982,"alcaldias":"Venustiano Carranza","objectid":67}},{"type":"Feature","id":68,"geometry":{"type":"Point","coordinates":[-99.120533452944144,19.42159026599343,0,null]},"properties":{"id":68,"sistema":"STC Metro","nombre":"Fray Servando","linea":"04","est":"03","cve_est":"STC0403","cve_eod17":"05090","tipo":"Intermedia","año":1982,"alcaldias":"Venustiano Carranza","objectid":68}},{"type":"Feature","id":69,"geometry":{"type":"Point","coordinates":[-99.119426285798852,19.428764222819854,0,null]},"properties":{"id":69,"sistema":"STC Metro","nombre":"Candelaria","linea":"04","est":"04","cve_est":"STC0404","cve_eod17":"05088","tipo":"Transbordo","año":1981,"alcaldias":"Venustiano Carranza","objectid":69}},{"type":"Feature","id":70,"geometry":{"type":"Point","coordinates":[-99.118152122506132,19.439664164000558,0,null]},"properties":{"id":70,"sistema":"STC Metro","nombre":"Morelos","linea":"04","est":"05","cve_est":"STC0405","cve_eod17":"05093","tipo":"Transbordo","año":1981,"alcaldias":"Venustiano Carranza","objectid":70}},{"type":"Feature","id":71,"geometry":{"type":"Point","coordinates":[-99.116133050763565,19.448945007083328,0,null]},"properties":{"id":71,"sistema":"STC Metro","nombre":"Canal del Norte","linea":"04","est":"06","cve_est":"STC0406","cve_eod17":"05087","tipo":"Intermedia","año":1981,"alcaldias":"Venustiano Carranza","objectid":71}},{"type":"Feature","id":72,"geometry":{"type":"Point","coordinates":[-99.113903848470727,19.458018198324872,0,null]},"properties":{"id":72,"sistema":"STC Metro","nombre":"Consulado","linea":"04","est":"07","cve_est":"STC0407","cve_eod17":"05089","tipo":"Transbordo","año":1981,"alcaldias":"Gustavo A. Madero","objectid":72}},{"type":"Feature","id":73,"geometry":{"type":"Point","coordinates":[-99.111976778502765,19.464631200454502,0,null]},"properties":{"id":73,"sistema":"STC Metro","nombre":"Bondojito","linea":"04","est":"08","cve_est":"STC0408","cve_eod17":"05086","tipo":"Intermedia","año":1981,"alcaldias":"Gustavo A. Madero","objectid":73}},{"type":"Feature","id":74,"geometry":{"type":"Point","coordinates":[-99.108012238614918,19.474358314006654,0,null]},"properties":{"id":74,"sistema":"STC Metro","nombre":"Talismán","linea":"04","est":"09","cve_est":"STC0409","cve_eod17":"05095","tipo":"Intermedia","año":1981,"alcaldias":"Gustavo A. Madero","objectid":74}},{"type":"Feature","id":75,"geometry":{"type":"Point","coordinates":[-99.104369477454071,19.485044143779984,0,null]},"properties":{"id":75,"sistema":"STC Metro","nombre":"Martín Carrera","linea":"04","est":"10","cve_est":"STC0410","cve_eod17":"05092","tipo":"Terminal / Transbordo","año":1981,"alcaldias":"Gustavo A. Madero","objectid":75}},{"type":"Feature","id":76,"geometry":{"type":"Point","coordinates":[-99.149205992600386,19.500678697759565,0,null]},"properties":{"id":76,"sistema":"STC Metro","nombre":"Politécnico","linea":"05","est":"01","cve_est":"STC0501","cve_eod17":"05106","tipo":"Terminal","año":1982,"alcaldias":"Gustavo A. Madero","objectid":76}},{"type":"Feature","id":77,"geometry":{"type":"Point","coordinates":[-99.14470974913263,19.489339308442684,0,null]},"properties":{"id":77,"sistema":"STC Metro","nombre":"Instituto del Petróleo","linea":"05","est":"02","cve_est":"STC0502","cve_eod17":"05101","tipo":"Transbordo","año":1982,"alcaldias":"Gustavo A. Madero","objectid":77}},{"type":"Feature","id":78,"geometry":{"type":"Point","coordinates":[-99.140650738581826,19.479070895017095,0,null]},"properties":{"id":78,"sistema":"STC Metro","nombre":"Autobuses del Norte","linea":"05","est":"03","cve_est":"STC0503","cve_eod17":"05097","tipo":"Intermedia","año":1982,"alcaldias":"Gustavo A. Madero","objectid":78}},{"type":"Feature","id":79,"geometry":{"type":"Point","coordinates":[-99.13651565050516,19.469666469694143,0,null]},"properties":{"id":79,"sistema":"STC Metro","nombre":"La Raza","linea":"05","est":"04","cve_est":"STC0504","cve_eod17":"05102","tipo":"Transbordo","año":1982,"alcaldias":"Gustavo A. Madero","objectid":79}},{"type":"Feature","id":80,"geometry":{"type":"Point","coordinates":[-99.130239570319034,19.46311219477165,0,null]},"properties":{"id":80,"sistema":"STC Metro","nombre":"Misterios","linea":"05","est":"05","cve_est":"STC0505","cve_eod17":"05103","tipo":"Intermedia","año":1982,"alcaldias":"Gustavo A. Madero / Cuauhtémoc","objectid":80}},{"type":"Feature","id":81,"geometry":{"type":"Point","coordinates":[-99.119490990665639,19.458872138915357,0,null]},"properties":{"id":81,"sistema":"STC Metro","nombre":"Valle Gómez","linea":"05","est":"06","cve_est":"STC0506","cve_eod17":"05108","tipo":"Intermedia","año":1982,"alcaldias":"Gustavo A. Madero / Venustiano Carranza","objectid":81}},{"type":"Feature","id":82,"geometry":{"type":"Point","coordinates":[-99.113536231477781,19.455135874100517,0,null]},"properties":{"id":82,"sistema":"STC Metro","nombre":"Consulado","linea":"05","est":"07","cve_est":"STC0507","cve_eod17":"05098","tipo":"Transbordo","año":1981,"alcaldias":"Gustavo A. Madero / Venustiano Carranza","objectid":82}},{"type":"Feature","id":83,"geometry":{"type":"Point","coordinates":[-99.105299698481033,19.4513975128881,0,null]},"properties":{"id":83,"sistema":"STC Metro","nombre":"Eduardo Molina","linea":"05","est":"08","cve_est":"STC0508","cve_eod17":"05099","tipo":"Intermedia","año":1981,"alcaldias":"Gustavo A. Madero / Venustiano Carranza","objectid":83}},{"type":"Feature","id":84,"geometry":{"type":"Point","coordinates":[-99.096205153768025,19.45125758754045,0,null]},"properties":{"id":84,"sistema":"STC Metro","nombre":"Aragón","linea":"05","est":"09","cve_est":"STC0509","cve_eod17":"05096","tipo":"Intermedia","año":1981,"alcaldias":"Gustavo A. Madero / Venustiano Carranza","objectid":84}},{"type":"Feature","id":85,"geometry":{"type":"Point","coordinates":[-99.086872924055726,19.445020485234963,0,null]},"properties":{"id":85,"sistema":"STC Metro","nombre":"Oceanía","linea":"05","est":"10","cve_est":"STC0510","cve_eod17":"05104","tipo":"Transbordo","año":1981,"alcaldias":"Venustiano Carranza","objectid":85}},{"type":"Feature","id":86,"geometry":{"type":"Point","coordinates":[-99.088076237358692,19.434265100891214,0,null]},"properties":{"id":86,"sistema":"STC Metro","nombre":"Terminal Aérea","linea":"05","est":"11","cve_est":"STC0511","cve_eod17":"05107","tipo":"Intermedia","año":1981,"alcaldias":"Venustiano Carranza","objectid":86}},{"type":"Feature","id":87,"geometry":{"type":"Point","coordinates":[-99.088133774597296,19.424349906973134,0,null]},"properties":{"id":87,"sistema":"STC Metro","nombre":"Hangares","linea":"05","est":"12","cve_est":"STC0512","cve_eod17":"05100","tipo":"Intermedia","año":1981,"alcaldias":"Venustiano Carranza","objectid":87}},{"type":"Feature","id":88,"geometry":{"type":"Point","coordinates":[-99.074328808086364,19.415104772581728,0,null]},"properties":{"id":88,"sistema":"STC Metro","nombre":"Pantitlán","linea":"05","est":"13","cve_est":"STC0513","cve_eod17":"05105","tipo":"Terminal / Transbordo","año":1981,"alcaldias":"Venustiano Carranza","objectid":88}},{"type":"Feature","id":89,"geometry":{"type":"Point","coordinates":[-99.199769816221931,19.504630142710525,0,null]},"properties":{"id":89,"sistema":"STC Metro","nombre":"El Rosario","linea":"06","est":"01","cve_est":"STC0601","cve_eod17":"05112","tipo":"Terminal / Transbordo","año":1983,"alcaldias":"Azcapotzalco","objectid":89}},{"type":"Feature","id":90,"geometry":{"type":"Point","coordinates":[-99.19602298699894,19.494895163190847,0,null]},"properties":{"id":90,"sistema":"STC Metro","nombre":"Tezozómoc","linea":"06","est":"02","cve_est":"STC0602","cve_eod17":"05118","tipo":"Intermedia","año":1983,"alcaldias":"Azcapotzalco","objectid":90}},{"type":"Feature","id":91,"geometry":{"type":"Point","coordinates":[-99.18626730878637,19.490908142029582,0,null]},"properties":{"id":91,"sistema":"STC Metro","nombre":"UAM Azcapotzalco","linea":"06","est":"03","cve_est":"STC0603","cve_eod17":"05110","tipo":"Intermedia","año":1983,"alcaldias":"Azcapotzalco","objectid":91}},{"type":"Feature","id":92,"geometry":{"type":"Point","coordinates":[-99.17415168259582,19.490673428160559,0,null]},"properties":{"id":92,"sistema":"STC Metro","nombre":"Ferrería/Arena Ciudad de México","linea":"06","est":"04","cve_est":"STC0604","cve_eod17":"05109","tipo":"Intermedia","año":1983,"alcaldias":"Azcapotzalco","objectid":92}},{"type":"Feature","id":93,"geometry":{"type":"Point","coordinates":[-99.162990354073941,19.488671412614213,0,null]},"properties":{"id":93,"sistema":"STC Metro","nombre":"Norte 45","linea":"06","est":"05","cve_est":"STC0605","cve_eod17":"05117","tipo":"Intermedia","año":1983,"alcaldias":"Azcapotzalco","objectid":93}},{"type":"Feature","id":94,"geometry":{"type":"Point","coordinates":[-99.156004309463356,19.489847786043118,0,null]},"properties":{"id":94,"sistema":"STC Metro","nombre":"Vallejo","linea":"06","est":"06","cve_est":"STC0606","cve_eod17":"05119","tipo":"Intermedia","año":1983,"alcaldias":"Azcapotzalco","objectid":94}},{"type":"Feature","id":95,"geometry":{"type":"Point","coordinates":[-99.148125998808482,19.491044230486885,0,null]},"properties":{"id":95,"sistema":"STC Metro","nombre":"Instituto del Petróleo","linea":"06","est":"07","cve_est":"STC0607","cve_eod17":"05113","tipo":"Transbordo","año":1983,"alcaldias":"Gustavo A. Madero","objectid":95}},{"type":"Feature","id":96,"geometry":{"type":"Point","coordinates":[-99.135071417917501,19.488112986900273,0,null]},"properties":{"id":96,"sistema":"STC Metro","nombre":"Lindavista","linea":"06","est":"08","cve_est":"STC0608","cve_eod17":"05115","tipo":"Intermedia","año":1986,"alcaldias":"Gustavo A. Madero","objectid":96}},{"type":"Feature","id":97,"geometry":{"type":"Point","coordinates":[-99.125303658659405,19.483482016381441,0,null]},"properties":{"id":97,"sistema":"STC Metro","nombre":"Deportivo 18 de Marzo","linea":"06","est":"09","cve_est":"STC0609","cve_eod17":"05111","tipo":"Transbordo","año":1986,"alcaldias":"Gustavo A. Madero","objectid":97}},{"type":"Feature","id":98,"geometry":{"type":"Point","coordinates":[-99.118369261861332,19.481735807375614,0,null]},"properties":{"id":98,"sistema":"STC Metro","nombre":"La Villa/Basílica","linea":"06","est":"10","cve_est":"STC0610","cve_eod17":"05114","tipo":"Intermedia","año":1986,"alcaldias":"Gustavo A. Madero","objectid":98}},{"type":"Feature","id":99,"geometry":{"type":"Point","coordinates":[-99.107475312680748,19.482938820643252,0,null]},"properties":{"id":99,"sistema":"STC Metro","nombre":"Martín Carrera","linea":"06","est":"11","cve_est":"STC0611","cve_eod17":"05116","tipo":"Terminal / Transbordo","año":1986,"alcaldias":"Gustavo A. Madero","objectid":99}},{"type":"Feature","id":100,"geometry":{"type":"Point","coordinates":[-99.200115865289234,19.504737873545341,0,null]},"properties":{"id":100,"sistema":"STC Metro","nombre":"El Rosario","linea":"07","est":"01","cve_est":"STC0701","cve_eod17":"05125","tipo":"Terminal / Transbordo","año":1988,"alcaldias":"Azcapotzalco","objectid":100}},{"type":"Feature","id":101,"geometry":{"type":"Point","coordinates":[-99.195352327302544,19.490640141894033,0,null]},"properties":{"id":101,"sistema":"STC Metro","nombre":"Aquiles Serdán","linea":"07","est":"02","cve_est":"STC0702","cve_eod17":"05120","tipo":"Intermedia","año":1988,"alcaldias":"Azcapotzalco","objectid":101}},{"type":"Feature","id":102,"geometry":{"type":"Point","coordinates":[-99.190037571464373,19.479111541792264,0,null]},"properties":{"id":102,"sistema":"STC Metro","nombre":"Camarones","linea":"07","est":"03","cve_est":"STC0703","cve_eod17":"05123","tipo":"Intermedia","año":1988,"alcaldias":"Azcapotzalco","objectid":102}},{"type":"Feature","id":103,"geometry":{"type":"Point","coordinates":[-99.190505527291606,19.469472893450682,0,null]},"properties":{"id":103,"sistema":"STC Metro","nombre":"Refinería","linea":"07","est":"04","cve_est":"STC0704","cve_eod17":"05128","tipo":"Intermedia","año":1988,"alcaldias":"Azcapotzalco","objectid":103}},{"type":"Feature","id":104,"geometry":{"type":"Point","coordinates":[-99.18716900417526,19.458234757866293,0,null]},"properties":{"id":104,"sistema":"STC Metro","nombre":"Tacuba","linea":"07","est":"05","cve_est":"STC0705","cve_eod17":"05132","tipo":"Transbordo","año":1984,"alcaldias":"Miguel Hidalgo","objectid":104}},{"type":"Feature","id":105,"geometry":{"type":"Point","coordinates":[-99.191766964087719,19.445007538790733,0,null]},"properties":{"id":105,"sistema":"STC Metro","nombre":"San Joaquín","linea":"07","est":"06","cve_est":"STC0706","cve_eod17":"05130","tipo":"Intermedia","año":1984,"alcaldias":"Miguel Hidalgo","objectid":105}},{"type":"Feature","id":106,"geometry":{"type":"Point","coordinates":[-99.1909251080926,19.433553134731415,0,null]},"properties":{"id":106,"sistema":"STC Metro","nombre":"Polanco","linea":"07","est":"07","cve_est":"STC0707","cve_eod17":"05127","tipo":"Intermedia","año":1984,"alcaldias":"Miguel Hidalgo","objectid":106}},{"type":"Feature","id":107,"geometry":{"type":"Point","coordinates":[-99.192028904407607,19.425763824652503,0,null]},"properties":{"id":107,"sistema":"STC Metro","nombre":"Auditorio","linea":"07","est":"08","cve_est":"STC0708","cve_eod17":"05121","tipo":"Intermedia","año":1984,"alcaldias":"Miguel Hidalgo","objectid":107}},{"type":"Feature","id":108,"geometry":{"type":"Point","coordinates":[-99.191351855428039,19.41177086530249,0,null]},"properties":{"id":108,"sistema":"STC Metro","nombre":"Constituyentes","linea":"07","est":"09","cve_est":"STC0709","cve_eod17":"05124","tipo":"Intermedia","año":1985,"alcaldias":"Miguel Hidalgo","objectid":108}},{"type":"Feature","id":109,"geometry":{"type":"Point","coordinates":[-99.186754459011013,19.402190217383648,0,null]},"properties":{"id":109,"sistema":"STC Metro","nombre":"Tacubaya","linea":"07","est":"10","cve_est":"STC0710","cve_eod17":"05133","tipo":"Transbordo","año":1985,"alcaldias":"Miguel Hidalgo","objectid":109}},{"type":"Feature","id":110,"geometry":{"type":"Point","coordinates":[-99.18580593484451,19.391491771957529,0,null]},"properties":{"id":110,"sistema":"STC Metro","nombre":"San Pedro de Los Pinos","linea":"07","est":"11","cve_est":"STC0711","cve_eod17":"05131","tipo":"Intermedia","año":1985,"alcaldias":"Benito Juárez","objectid":110}},{"type":"Feature","id":111,"geometry":{"type":"Point","coordinates":[-99.186613552778809,19.384337669360743,0,null]},"properties":{"id":111,"sistema":"STC Metro","nombre":"San Antonio","linea":"07","est":"12","cve_est":"STC0712","cve_eod17":"05129","tipo":"Intermedia","año":1985,"alcaldias":"Benito Juárez","objectid":111}},{"type":"Feature","id":112,"geometry":{"type":"Point","coordinates":[-99.187582415535957,19.376256500770424,0,null]},"properties":{"id":112,"sistema":"STC Metro","nombre":"Mixcoac","linea":"07","est":"13","cve_est":"STC0713","cve_eod17":"05126","tipo":"Transbordo","año":1985,"alcaldias":"Benito Juárez","objectid":112}},{"type":"Feature","id":113,"geometry":{"type":"Point","coordinates":[-99.189263706893882,19.361501562394725,0,null]},"properties":{"id":113,"sistema":"STC Metro","nombre":"Barranca del Muerto","linea":"07","est":"14","cve_est":"STC0714","cve_eod17":"05122","tipo":"Terminal","año":1985,"alcaldias":"Álvaro Obregón","objectid":113}},{"type":"Feature","id":114,"geometry":{"type":"Point","coordinates":[-99.139004412745322,19.444001287609144,0,null]},"properties":{"id":114,"sistema":"STC Metro","nombre":"Garibaldi/Lagunilla","linea":"08","est":"01","cve_est":"STC0801","cve_eod17":"05144","tipo":"Terminal / Transbordo","año":1994,"alcaldias":"Cuauhtémoc","objectid":114}},{"type":"Feature","id":115,"geometry":{"type":"Point","coordinates":[-99.140420727849332,19.437012911325024,0,null]},"properties":{"id":115,"sistema":"STC Metro","nombre":"Bellas Artes","linea":"08","est":"02","cve_est":"STC0802","cve_eod17":"05137","tipo":"Transbordo","año":1994,"alcaldias":"Cuauhtémoc","objectid":115}},{"type":"Feature","id":116,"geometry":{"type":"Point","coordinates":[-99.141250610543125,19.431580448144292,0,null]},"properties":{"id":116,"sistema":"STC Metro","nombre":"San Juan de Letrán","linea":"08","est":"03","cve_est":"STC0803","cve_eod17":"05150","tipo":"Intermedia","año":1994,"alcaldias":"Cuauhtémoc","objectid":116}},{"type":"Feature","id":117,"geometry":{"type":"Point","coordinates":[-99.141851746473762,19.427718296806209,0,null]},"properties":{"id":117,"sistema":"STC Metro","nombre":"Salto del Agua","linea":"08","est":"04","cve_est":"STC0804","cve_eod17":"05149","tipo":"Transbordo","año":1994,"alcaldias":"Cuauhtémoc","objectid":117}},{"type":"Feature","id":118,"geometry":{"type":"Point","coordinates":[-99.143189408674175,19.421545610685374,0,null]},"properties":{"id":118,"sistema":"STC Metro","nombre":"Doctores","linea":"08","est":"05","cve_est":"STC0805","cve_eod17":"05142","tipo":"Intermedia","año":1994,"alcaldias":"Cuauhtémoc","objectid":118}},{"type":"Feature","id":119,"geometry":{"type":"Point","coordinates":[-99.144037963723292,19.413240375317603,0,null]},"properties":{"id":119,"sistema":"STC Metro","nombre":"Obrera","linea":"08","est":"06","cve_est":"STC0806","cve_eod17":"05148","tipo":"Intermedia","año":1994,"alcaldias":"Cuauhtémoc","objectid":119}},{"type":"Feature","id":120,"geometry":{"type":"Point","coordinates":[-99.133751335267064,19.410207490183815,0,null]},"properties":{"id":120,"sistema":"STC Metro","nombre":"Chabacano","linea":"08","est":"07","cve_est":"STC0807","cve_eod17":"05139","tipo":"Transbordo","año":1994,"alcaldias":"Cuauhtémoc","objectid":120}},{"type":"Feature","id":121,"geometry":{"type":"Point","coordinates":[-99.126269062453943,19.406709433512571,0,null]},"properties":{"id":121,"sistema":"STC Metro","nombre":"La Viga","linea":"08","est":"08","cve_est":"STC0808","cve_eod17":"05147","tipo":"Intermedia","año":1994,"alcaldias":"Cuauhtémoc / Venustiano Carranza","objectid":121}},{"type":"Feature","id":122,"geometry":{"type":"Point","coordinates":[-99.120657239660773,19.404123433424125,0,null]},"properties":{"id":122,"sistema":"STC Metro","nombre":"Santa Anita","linea":"08","est":"09","cve_est":"STC0809","cve_eod17":"05151","tipo":"Transbordo","año":1994,"alcaldias":"Iztacalco","objectid":122}},{"type":"Feature","id":123,"geometry":{"type":"Point","coordinates":[-99.113480431218107,19.3983028948231,0,null]},"properties":{"id":123,"sistema":"STC Metro","nombre":"Coyuya","linea":"08","est":"10","cve_est":"STC0810","cve_eod17":"05141","tipo":"Intermedia","año":1994,"alcaldias":"Iztacalco","objectid":123}},{"type":"Feature","id":124,"geometry":{"type":"Point","coordinates":[-99.112111730885132,19.38828875657337,0,null]},"properties":{"id":124,"sistema":"STC Metro","nombre":"Iztacalco","linea":"08","est":"11","cve_est":"STC0811","cve_eod17":"05145","tipo":"Intermedia","año":1994,"alcaldias":"Iztacalco","objectid":124}},{"type":"Feature","id":125,"geometry":{"type":"Point","coordinates":[-99.109490146419915,19.379099812934378,0,null]},"properties":{"id":125,"sistema":"STC Metro","nombre":"Apatlaco","linea":"08","est":"12","cve_est":"STC0812","cve_eod17":"05135","tipo":"Intermedia","año":1994,"alcaldias":"Iztapalapa","objectid":125}},{"type":"Feature","id":126,"geometry":{"type":"Point","coordinates":[-99.107703593430202,19.373211409720305,0,null]},"properties":{"id":126,"sistema":"STC Metro","nombre":"Aculco","linea":"08","est":"13","cve_est":"STC0813","cve_eod17":"05134","tipo":"Intermedia","año":1994,"alcaldias":"Iztapalapa","objectid":126}},{"type":"Feature","id":127,"geometry":{"type":"Point","coordinates":[-99.109484984291328,19.364836410747856,0,null]},"properties":{"id":127,"sistema":"STC Metro","nombre":"Escuadrón 201","linea":"08","est":"14","cve_est":"STC0814","cve_eod17":"05143","tipo":"Intermedia","año":1994,"alcaldias":"Iztapalapa","objectid":127}},{"type":"Feature","id":128,"geometry":{"type":"Point","coordinates":[-99.10130942994968,19.356084482782308,0,null]},"properties":{"id":128,"sistema":"STC Metro","nombre":"Atlalilco","linea":"08","est":"15","cve_est":"STC0815","cve_eod17":"05136","tipo":"Transbordo","año":1994,"alcaldias":"Iztapalapa","objectid":128}},{"type":"Feature","id":129,"geometry":{"type":"Point","coordinates":[-99.093449076704431,19.35782493632005,0,null]},"properties":{"id":129,"sistema":"STC Metro","nombre":"Iztapalapa","linea":"08","est":"16","cve_est":"STC0816","cve_eod17":"05146","tipo":"Intermedia","año":1994,"alcaldias":"Iztapalapa","objectid":129}},{"type":"Feature","id":130,"geometry":{"type":"Point","coordinates":[-99.085616076486843,19.356047871608673,0,null]},"properties":{"id":130,"sistema":"STC Metro","nombre":"Cerro de la Estrella","linea":"08","est":"17","cve_est":"STC0817","cve_eod17":"05138","tipo":"Intermedia","año":1994,"alcaldias":"Iztapalapa","objectid":130}},{"type":"Feature","id":131,"geometry":{"type":"Point","coordinates":[-99.074817418904701,19.351056165965403,0,null]},"properties":{"id":131,"sistema":"STC Metro","nombre":"UAM-I","linea":"08","est":"18","cve_est":"STC0818","cve_eod17":"05152","tipo":"Intermedia","año":1994,"alcaldias":"Iztapalapa","objectid":131}},{"type":"Feature","id":132,"geometry":{"type":"Point","coordinates":[-99.063798849945954,19.345968405036363,0,null]},"properties":{"id":132,"sistema":"STC Metro","nombre":"Constitución de 1917","linea":"08","est":"19","cve_est":"STC0819","cve_eod17":"05140","tipo":"Terminal","año":1994,"alcaldias":"Iztapalapa","objectid":132}},{"type":"Feature","id":133,"geometry":{"type":"Point","coordinates":[-99.072205344900468,19.415351168024053,0,null]},"properties":{"id":133,"sistema":"STC Metro","nombre":"Pantitlán","linea":"09","est":"01","cve_est":"STC0901","cve_eod17":"05160","tipo":"Terminal / Transbordo","año":1987,"alcaldias":"Venustiano Carranza / Iztacalco","objectid":133}},{"type":"Feature","id":134,"geometry":{"type":"Point","coordinates":[-99.082385879675442,19.407192142091862,0,null]},"properties":{"id":134,"sistema":"STC Metro","nombre":"Puebla","linea":"09","est":"02","cve_est":"STC0902","cve_eod17":"05162","tipo":"Intermedia","año":1987,"alcaldias":"Venustiano Carranza / Iztacalco","objectid":134}},{"type":"Feature","id":135,"geometry":{"type":"Point","coordinates":[-99.09125194637727,19.408433981348704,0,null]},"properties":{"id":135,"sistema":"STC Metro","nombre":"Ciudad Deportiva","linea":"09","est":"03","cve_est":"STC0903","cve_eod17":"05156","tipo":"Intermedia","año":1987,"alcaldias":"Venustiano Carranza / Iztacalco","objectid":135}},{"type":"Feature","id":136,"geometry":{"type":"Point","coordinates":[-99.103157712223378,19.408539285462265,0,null]},"properties":{"id":136,"sistema":"STC Metro","nombre":"Velódromo","linea":"09","est":"04","cve_est":"STC0904","cve_eod17":"05164","tipo":"Intermedia","año":1987,"alcaldias":"Venustiano Carranza","objectid":136}},{"type":"Feature","id":137,"geometry":{"type":"Point","coordinates":[-99.112968476766909,19.408371439265434,0,null]},"properties":{"id":137,"sistema":"STC Metro","nombre":"Mixhiuca","linea":"09","est":"05","cve_est":"STC0905","cve_eod17":"05159","tipo":"Intermedia","año":1987,"alcaldias":"Venustiano Carranza","objectid":137}},{"type":"Feature","id":138,"geometry":{"type":"Point","coordinates":[-99.122349760188669,19.409103126984668,0,null]},"properties":{"id":138,"sistema":"STC Metro","nombre":"Jamaica","linea":"09","est":"06","cve_est":"STC0906","cve_eod17":"05157","tipo":"Transbordo","año":1987,"alcaldias":"Venustiano Carranza","objectid":138}},{"type":"Feature","id":139,"geometry":{"type":"Point","coordinates":[-99.133972992009816,19.408514533590179,0,null]},"properties":{"id":139,"sistema":"STC Metro","nombre":"Chabacano","linea":"09","est":"07","cve_est":"STC0907","cve_eod17":"05154","tipo":"Transbordo","año":1987,"alcaldias":"Cuauhtémoc","objectid":139}},{"type":"Feature","id":140,"geometry":{"type":"Point","coordinates":[-99.144628262883813,19.407218272946967,0,null]},"properties":{"id":140,"sistema":"STC Metro","nombre":"Lázaro Cárdenas","linea":"09","est":"08","cve_est":"STC0908","cve_eod17":"05158","tipo":"Intermedia","año":1987,"alcaldias":"Cuauhtémoc","objectid":140}},{"type":"Feature","id":141,"geometry":{"type":"Point","coordinates":[-99.156027939214184,19.406561352385754,0,null]},"properties":{"id":141,"sistema":"STC Metro","nombre":"Centro Médico","linea":"09","est":"09","cve_est":"STC0909","cve_eod17":"05153","tipo":"Transbordo","año":1987,"alcaldias":"Cuauhtémoc","objectid":141}},{"type":"Feature","id":142,"geometry":{"type":"Point","coordinates":[-99.168519364245427,19.405929857935615,0,null]},"properties":{"id":142,"sistema":"STC Metro","nombre":"Chilpancingo","linea":"09","est":"10","cve_est":"STC0910","cve_eod17":"05155","tipo":"Intermedia","año":1988,"alcaldias":"Cuauhtémoc","objectid":142}},{"type":"Feature","id":143,"geometry":{"type":"Point","coordinates":[-99.17892259754025,19.406108992010029,0,null]},"properties":{"id":143,"sistema":"STC Metro","nombre":"Patriotismo","linea":"09","est":"11","cve_est":"STC0911","cve_eod17":"05161","tipo":"Intermedia","año":1988,"alcaldias":"Cuauhtémoc / Miguel Hidalgo","objectid":143}},{"type":"Feature","id":144,"geometry":{"type":"Point","coordinates":[-99.187761091008653,19.401460579012276,0,null]},"properties":{"id":144,"sistema":"STC Metro","nombre":"Tacubaya","linea":"09","est":"12","cve_est":"STC0912","cve_eod17":"05163","tipo":"Terminal / Transbordo","año":1988,"alcaldias":"Miguel Hidalgo","objectid":144}},{"type":"Feature","id":145,"geometry":{"type":"Point","coordinates":[-99.014198324377659,19.286022276398175,0,null]},"properties":{"id":145,"sistema":"STC Metro","nombre":"Tláhuac","linea":"12","est":"01","cve_est":"STC1201","cve_eod17":"05037","tipo":"Terminal","año":2012,"alcaldias":"Tláhuac","objectid":145}},{"type":"Feature","id":146,"geometry":{"type":"Point","coordinates":[-99.024030746630984,19.294353378215948,0,null]},"properties":{"id":146,"sistema":"STC Metro","nombre":"Tlaltenco","linea":"12","est":"02","cve_est":"STC1202","cve_eod17":"05038","tipo":"Intermedia","año":2012,"alcaldias":"Tláhuac","objectid":146}},{"type":"Feature","id":147,"geometry":{"type":"Point","coordinates":[-99.034306890039488,19.296655585623078,0,null]},"properties":{"id":147,"sistema":"STC Metro","nombre":"Zapotitlán","linea":"12","est":"03","cve_est":"STC1203","cve_eod17":"05040","tipo":"Intermedia","año":2012,"alcaldias":"Tláhuac","objectid":147}},{"type":"Feature","id":148,"geometry":{"type":"Point","coordinates":[-99.045992868853489,19.299957303997285,0,null]},"properties":{"id":148,"sistema":"STC Metro","nombre":"Nopalera","linea":"12","est":"04","cve_est":"STC1204","cve_eod17":"05031","tipo":"Intermedia","año":2012,"alcaldias":"Tláhuac","objectid":148}},{"type":"Feature","id":149,"geometry":{"type":"Point","coordinates":[-99.059511495017702,19.304321995110215,0,null]},"properties":{"id":149,"sistema":"STC Metro","nombre":"Olivos","linea":"12","est":"05","cve_est":"STC1205","cve_eod17":"05032","tipo":"Intermedia","año":2012,"alcaldias":"Tláhuac","objectid":149}},{"type":"Feature","id":150,"geometry":{"type":"Point","coordinates":[-99.065270263702459,19.30630882461773,0,null]},"properties":{"id":150,"sistema":"STC Metro","nombre":"Tezonco","linea":"12","est":"06","cve_est":"STC1206","cve_eod17":"05036","tipo":"Intermedia","año":2012,"alcaldias":"Iztapalapa","objectid":150}},{"type":"Feature","id":151,"geometry":{"type":"Point","coordinates":[-99.074505750783871,19.317611567573149,0,null]},"properties":{"id":151,"sistema":"STC Metro","nombre":"Periferico Oriente","linea":"12","est":"07","cve_est":"STC1207","cve_eod17":"05034","tipo":"Intermedia","año":2012,"alcaldias":"Iztapalapa","objectid":151}},{"type":"Feature","id":152,"geometry":{"type":"Point","coordinates":[-99.085872864366777,19.320471150979785,0,null]},"properties":{"id":152,"sistema":"STC Metro","nombre":"Calle 11","linea":"12","est":"08","cve_est":"STC1208","cve_eod17":"05022","tipo":"Intermedia","año":2012,"alcaldias":"Iztapalapa","objectid":152}},{"type":"Feature","id":153,"geometry":{"type":"Point","coordinates":[-99.095750481514571,19.322148855452124,0,null]},"properties":{"id":153,"sistema":"STC Metro","nombre":"Lomas Estrella","linea":"12","est":"09","cve_est":"STC1209","cve_eod17":"05028","tipo":"Intermedia","año":2012,"alcaldias":"Iztapalapa","objectid":153}},{"type":"Feature","id":154,"geometry":{"type":"Point","coordinates":[-99.104515860905423,19.328145478628823,0,null]},"properties":{"id":154,"sistema":"STC Metro","nombre":"San Andres Tomatlán","linea":"12","est":"10","cve_est":"STC1210","cve_eod17":"05035","tipo":"Intermedia","año":2012,"alcaldias":"Iztapalapa","objectid":154}},{"type":"Feature","id":155,"geometry":{"type":"Point","coordinates":[-99.108958745172529,19.336845610187677,0,null]},"properties":{"id":155,"sistema":"STC Metro","nombre":"Culhuacán","linea":"12","est":"11","cve_est":"STC1211","cve_eod17":"05023","tipo":"Intermedia","año":2012,"alcaldias":"Iztapalapa","objectid":155}},{"type":"Feature","id":156,"geometry":{"type":"Point","coordinates":[-99.106243165359459,19.352754171923042,0,null]},"properties":{"id":156,"sistema":"STC Metro","nombre":"Atlalilco","linea":"12","est":"12","cve_est":"STC1212","cve_eod17":"05021","tipo":"Transbordo","año":2012,"alcaldias":"Iztapalapa","objectid":156}},{"type":"Feature","id":157,"geometry":{"type":"Point","coordinates":[-99.123143232225942,19.357762535193977,0,null]},"properties":{"id":157,"sistema":"STC Metro","nombre":"Mexicaltzingo","linea":"12","est":"13","cve_est":"STC1213","cve_eod17":"05029","tipo":"Intermedia","año":2012,"alcaldias":"Iztapalapa / Coyoacán","objectid":157}},{"type":"Feature","id":158,"geometry":{"type":"Point","coordinates":[-99.141631363053861,19.359823502131963,0,null]},"properties":{"id":158,"sistema":"STC Metro","nombre":"Ermita","linea":"12","est":"14","cve_est":"STC1214","cve_eod17":"05025","tipo":"Transbordo","año":2012,"alcaldias":"Benito Juárez","objectid":158}},{"type":"Feature","id":159,"geometry":{"type":"Point","coordinates":[-99.151423361478052,19.361341237046716,0,null]},"properties":{"id":159,"sistema":"STC Metro","nombre":"Eje Central","linea":"12","est":"15","cve_est":"STC1215","cve_eod17":"05024","tipo":"Intermedia","año":2012,"alcaldias":"Benito Juárez","objectid":159}},{"type":"Feature","id":160,"geometry":{"type":"Point","coordinates":[-99.158717718971189,19.370658834085614,0,null]},"properties":{"id":160,"sistema":"STC Metro","nombre":"Parque de los Venados","linea":"12","est":"16","cve_est":"STC1216","cve_eod17":"05033","tipo":"Intermedia","año":2012,"alcaldias":"Benito Juárez","objectid":160}},{"type":"Feature","id":161,"geometry":{"type":"Point","coordinates":[-99.165599315593383,19.37084530066517,0,null]},"properties":{"id":161,"sistema":"STC Metro","nombre":"Zapata","linea":"12","est":"17","cve_est":"STC1217","cve_eod17":"05039","tipo":"Transbordo","año":2012,"alcaldias":"Benito Juárez","objectid":161}},{"type":"Feature","id":162,"geometry":{"type":"Point","coordinates":[-99.170884462767674,19.372013376059982,0,null]},"properties":{"id":162,"sistema":"STC Metro","nombre":"Hospital 20 de Noviembre","linea":"12","est":"18","cve_est":"STC1218","cve_eod17":"05026","tipo":"Intermedia","año":2012,"alcaldias":"Benito Juárez","objectid":162}},{"type":"Feature","id":163,"geometry":{"type":"Point","coordinates":[-99.178250129251879,19.37355346933526,0,null]},"properties":{"id":163,"sistema":"STC Metro","nombre":"Insurgentes Sur","linea":"12","est":"19","cve_est":"STC1219","cve_eod17":"05027","tipo":"Intermedia","año":2012,"alcaldias":"Benito Juárez","objectid":163}},{"type":"Feature","id":164,"geometry":{"type":"Point","coordinates":[-99.18673050109318,19.375698822544425,0,null]},"properties":{"id":164,"sistema":"STC Metro","nombre":"Mixcoac","linea":"12","est":"20","cve_est":"STC1220","cve_eod17":"05030","tipo":"Terminal / Transbordo","año":2012,"alcaldias":"Benito Juárez","objectid":164}},{"type":"Feature","id":165,"geometry":{"type":"Point","coordinates":[-99.071922937157041,19.41529752365016,0,null]},"properties":{"id":165,"sistema":"STC Metro","nombre":"Pantitlán","linea":"A","est":"01","cve_est":"STCLA01","cve_eod17":"05171","tipo":"Terminal / Transbordo","año":1991,"alcaldias":"Iztacalco","objectid":165}},{"type":"Feature","id":166,"geometry":{"type":"Point","coordinates":[-99.06956646430919,19.404618895039583,0,null]},"properties":{"id":166,"sistema":"STC Metro","nombre":"Agrícola Oriental","linea":"A","est":"02","cve_est":"STCLA02","cve_eod17":"05166","tipo":"Intermedia","año":1991,"alcaldias":"Iztacalco","objectid":166}},{"type":"Feature","id":167,"geometry":{"type":"Point","coordinates":[-99.05942280066003,19.398762930307949,0,null]},"properties":{"id":167,"sistema":"STC Metro","nombre":"Canal de San Juan","linea":"A","est":"03","cve_est":"STCLA03","cve_eod17":"05167","tipo":"Intermedia","año":1991,"alcaldias":"Iztacalco","objectid":167}},{"type":"Feature","id":168,"geometry":{"type":"Point","coordinates":[-99.046329397356971,19.391276494068265,0,null]},"properties":{"id":168,"sistema":"STC Metro","nombre":"Tepalcates","linea":"A","est":"04","cve_est":"STCLA04","cve_eod17":"05174","tipo":"Intermedia","año":1991,"alcaldias":"Iztapalapa","objectid":168}},{"type":"Feature","id":169,"geometry":{"type":"Point","coordinates":[-99.035659600699731,19.385153886571739,0,null]},"properties":{"id":169,"sistema":"STC Metro","nombre":"Guelatao","linea":"A","est":"05","cve_est":"STCLA05","cve_eod17":"05168","tipo":"Intermedia","año":1991,"alcaldias":"Iztapalapa","objectid":169}},{"type":"Feature","id":170,"geometry":{"type":"Point","coordinates":[-99.017054836412271,19.373305050897176,0,null]},"properties":{"id":170,"sistema":"STC Metro","nombre":"Peñón Viejo","linea":"A","est":"06","cve_est":"STCLA06","cve_eod17":"05172","tipo":"Intermedia","año":1991,"alcaldias":"Iztapalapa","objectid":170}},{"type":"Feature","id":171,"geometry":{"type":"Point","coordinates":[-99.005672716859522,19.364717389504367,0,null]},"properties":{"id":171,"sistema":"STC Metro","nombre":"Acatitla","linea":"A","est":"07","cve_est":"STCLA07","cve_eod17":"05165","tipo":"Intermedia","año":1991,"alcaldias":"Iztapalapa","objectid":171}},{"type":"Feature","id":172,"geometry":{"type":"Point","coordinates":[-98.995178323236274,19.360305046479812,0,null]},"properties":{"id":172,"sistema":"STC Metro","nombre":"Santa Marta","linea":"A","est":"08","cve_est":"STCLA08","cve_eod17":"05173","tipo":"Intermedia","año":1991,"alcaldias":"Iztapalapa","objectid":172}},{"type":"Feature","id":173,"geometry":{"type":"Point","coordinates":[-98.97686678250453,19.359037461098122,0,null]},"properties":{"id":173,"sistema":"STC Metro","nombre":"Los Reyes","linea":"A","est":"09","cve_est":"STCLA09","cve_eod17":"05170","tipo":"Intermedia","año":1991,"alcaldias":"Estado de México - La Paz","objectid":173}},{"type":"Feature","id":174,"geometry":{"type":"Point","coordinates":[-98.960937250426895,19.35056157124146,0,null]},"properties":{"id":174,"sistema":"STC Metro","nombre":"La Paz","linea":"A","est":"10","cve_est":"STCLA10","cve_eod17":"05169","tipo":"Terminal","año":1991,"alcaldias":"Estado de México - La Paz","objectid":174}},{"type":"Feature","id":175,"geometry":{"type":"Point","coordinates":[-99.152351377425802,19.446185902467953,0,null]},"properties":{"id":175,"sistema":"STC Metro","nombre":"Buenavista","linea":"B","est":"01","cve_est":"STCLB01","cve_eod17":"05176","tipo":"Terminal","año":1999,"alcaldias":"Cuauhtémoc","objectid":175}},{"type":"Feature","id":176,"geometry":{"type":"Point","coordinates":[-99.146138727386216,19.445144831651692,0,null]},"properties":{"id":176,"sistema":"STC Metro","nombre":"Guerrero","linea":"B","est":"02","cve_est":"STCLB02","cve_eod17":"05181","tipo":"Transbordo","año":1999,"alcaldias":"Cuauhtémoc","objectid":176}},{"type":"Feature","id":177,"geometry":{"type":"Point","coordinates":[-99.137865664856662,19.443889631210279,0,null]},"properties":{"id":177,"sistema":"STC Metro","nombre":"Garibaldi/Lagunilla","linea":"B","est":"03","cve_est":"STCLB03","cve_eod17":"05180","tipo":"Transbordo","año":1999,"alcaldias":"Cuauhtémoc","objectid":177}},{"type":"Feature","id":178,"geometry":{"type":"Point","coordinates":[-99.130230429235283,19.443220040935952,0,null]},"properties":{"id":178,"sistema":"STC Metro","nombre":"Lagunilla","linea":"B","est":"04","cve_est":"STCLB04","cve_eod17":"05183","tipo":"Intermedia","año":1999,"alcaldias":"Cuauhtémoc","objectid":178}},{"type":"Feature","id":179,"geometry":{"type":"Point","coordinates":[-99.124067440298077,19.442789390403728,0,null]},"properties":{"id":179,"sistema":"STC Metro","nombre":"Tepito","linea":"B","est":"05","cve_est":"STCLB05","cve_eod17":"05194","tipo":"Intermedia","año":1999,"alcaldias":"Cuauhtémoc","objectid":179}},{"type":"Feature","id":180,"geometry":{"type":"Point","coordinates":[-99.119568767024091,19.439166626389614,0,null]},"properties":{"id":180,"sistema":"STC Metro","nombre":"Morelos","linea":"B","est":"06","cve_est":"STCLB06","cve_eod17":"05184","tipo":"Transbordo","año":1999,"alcaldias":"Venustiano Carranza","objectid":180}},{"type":"Feature","id":181,"geometry":{"type":"Point","coordinates":[-99.112960972667267,19.432370933694767,0,null]},"properties":{"id":181,"sistema":"STC Metro","nombre":"San Lázaro","linea":"B","est":"07","cve_est":"STCLB07","cve_eod17":"05193","tipo":"Transbordo","año":1999,"alcaldias":"Venustiano Carranza","objectid":181}},{"type":"Feature","id":182,"geometry":{"type":"Point","coordinates":[-99.103708741175083,19.436565372481549,0,null]},"properties":{"id":182,"sistema":"STC Metro","nombre":"Ricardo Flores Magón","linea":"B","est":"08","cve_est":"STCLB08","cve_eod17":"05190","tipo":"Intermedia","año":1999,"alcaldias":"Venustiano Carranza","objectid":182}},{"type":"Feature","id":183,"geometry":{"type":"Point","coordinates":[-99.094201674730684,19.440835353273783,0,null]},"properties":{"id":183,"sistema":"STC Metro","nombre":"Romero Rubio","linea":"B","est":"09","cve_est":"STCLB09","cve_eod17":"05192","tipo":"Intermedia","año":1999,"alcaldias":"Venustiano Carranza","objectid":183}},{"type":"Feature","id":184,"geometry":{"type":"Point","coordinates":[-99.087217325657562,19.445694826066827,0,null]},"properties":{"id":184,"sistema":"STC Metro","nombre":"Oceanía","linea":"B","est":"10","cve_est":"STCLB10","cve_eod17":"05187","tipo":"Transbordo","año":1999,"alcaldias":"Gustavo A. Madero / Venustiano Carranza","objectid":184}},{"type":"Feature","id":185,"geometry":{"type":"Point","coordinates":[-99.079334230670071,19.451011096367957,0,null]},"properties":{"id":185,"sistema":"STC Metro","nombre":"Deportivo Oceanía","linea":"B","est":"11","cve_est":"STCLB11","cve_eod17":"05178","tipo":"Intermedia","año":1999,"alcaldias":"Gustavo A. Madero","objectid":185}},{"type":"Feature","id":186,"geometry":{"type":"Point","coordinates":[-99.069288696020351,19.458094772072172,0,null]},"properties":{"id":186,"sistema":"STC Metro","nombre":"Bosque de Aragón","linea":"B","est":"12","cve_est":"STCLB12","cve_eod17":"05175","tipo":"Intermedia","año":1999,"alcaldias":"Gustavo A. Madero","objectid":186}},{"type":"Feature","id":187,"geometry":{"type":"Point","coordinates":[-99.061381966869419,19.461670791053184,0,null]},"properties":{"id":187,"sistema":"STC Metro","nombre":"Villa de Aragón","linea":"B","est":"13","cve_est":"STCLB13","cve_eod17":"05195","tipo":"Intermedia","año":1999,"alcaldias":"Gustavo A. Madero","objectid":187}},{"type":"Feature","id":188,"geometry":{"type":"Point","coordinates":[-99.054613336503138,19.472885632740347,0,null]},"properties":{"id":188,"sistema":"STC Metro","nombre":"Nezahualcóyotl","linea":"B","est":"14","cve_est":"STCLB14","cve_eod17":"05186","tipo":"Intermedia","año":2000,"alcaldias":"Estado de México - Nezahualcóyotl","objectid":188}},{"type":"Feature","id":189,"geometry":{"type":"Point","coordinates":[-99.048957160094133,19.4857532221098,0,null]},"properties":{"id":189,"sistema":"STC Metro","nombre":"Impulsora","linea":"B","est":"15","cve_est":"STCLB15","cve_eod17":"05182","tipo":"Intermedia","año":2000,"alcaldias":"Estado de México - Nezahualcóyotl","objectid":189}},{"type":"Feature","id":190,"geometry":{"type":"Point","coordinates":[-99.046786641754835,19.490688674693462,0,null]},"properties":{"id":190,"sistema":"STC Metro","nombre":"Río de los Remedios","linea":"B","est":"16","cve_est":"STCLB16","cve_eod17":"05191","tipo":"Intermedia","año":2000,"alcaldias":"Estado de México - Nezahualcóyotl","objectid":190}},{"type":"Feature","id":191,"geometry":{"type":"Point","coordinates":[-99.042067197260138,19.501490327464822,0,null]},"properties":{"id":191,"sistema":"STC Metro","nombre":"Múzquiz","linea":"B","est":"17","cve_est":"STCLB17","cve_eod17":"05185","tipo":"Intermedia","año":2000,"alcaldias":"Estado de México - Ecatepec","objectid":191}},{"type":"Feature","id":192,"geometry":{"type":"Point","coordinates":[-99.036069337437354,19.515125081822195,0,null]},"properties":{"id":192,"sistema":"STC Metro","nombre":"Ecatepec","linea":"B","est":"18","cve_est":"STCLB18","cve_eod17":"05179","tipo":"Intermedia","año":2000,"alcaldias":"Estado de México - Ecatepec","objectid":192}},{"type":"Feature","id":193,"geometry":{"type":"Point","coordinates":[-99.033342494388833,19.521344933336895,0,null]},"properties":{"id":193,"sistema":"STC Metro","nombre":"Olímpica","linea":"B","est":"19","cve_est":"STCLB19","cve_eod17":"05188","tipo":"Intermedia","año":2000,"alcaldias":"Estado de México - Ecatepec","objectid":193}},{"type":"Feature","id":194,"geometry":{"type":"Point","coordinates":[-99.030184549660703,19.52847589296217,0,null]},"properties":{"id":194,"sistema":"STC Metro","nombre":"Plaza Aragón","linea":"B","est":"20","cve_est":"STCLB20","cve_eod17":"05189","tipo":"Intermedia","año":2000,"alcaldias":"Estado de México - Ecatepec","objectid":194}},{"type":"Feature","id":195,"geometry":{"type":"Point","coordinates":[-99.027509717337594,19.534513064219883,0,null]},"properties":{"id":195,"sistema":"STC Metro","nombre":"Ciudad Azteca","linea":"B","est":"21","cve_est":"STCLB21","cve_eod17":"05177","tipo":"Terminal","año":2000,"alcaldias":"Estado de México - Ecatepec","objectid":195}}]}